{"type": "FeatureCollection", "features": [ {"type": "Feature", "properties": {"norad_id": 66539, "name": "STARLINK-35697", "group": "last-30-days", "lat": -37.576033630252134, "lon": -16.576055157070876, "alt_km": 346.54922068107317, "timestamp": "2025-12-03T15:48:01.919990+00:00", "meta": {"OBJECT_NAME": "STARLINK-35697", "OBJECT_ID": "2025-265Z", "EPOCH": "2025-12-03T06:00:02.999808", "MEAN_MOTION": 15.75036183, "ECCENTRICITY": 0.00016224, "INCLINATION": 43, "RA_OF_ASC_NODE": 110.2399, "ARG_OF_PERICENTER": 260.3782, "MEAN_ANOMALY": 184.9473, "EPHEMERIS_TYPE": 0, "CLASSIFICATION_TYPE": "U", "NORAD_CAT_ID": 66539, "ELEMENT_SET_NO": 999, "REV_AT_EPOCH": 347, "BSTAR": 0.00020334268, "MEAN_MOTION_DOT": 0.00030868, "MEAN_MOTION_DDOT": 0}, "tle": {"line1": "1 66539U 25265Z   25337.25003472  .00030868  00000+0  20334-3 0  9991", "line2": "2 66539  43.0000 110.2399 0001622 260.3782 184.9473 15.75036183  3471"}}, "geometry": {"type": "Point", "coordinates": [-16.576055157070876, -37.576033630252134]}}, {"type": "Feature", "properties": {"norad_id": 66540, "name": "STARLINK-35818", "group": "last-30-days", "lat": -38.29100938799905, "lon": -14.32757971173106, "alt_km": 346.4824118310489, "timestamp": "2025-12-03T15:48:01.919999+00:00", "meta": {"OBJECT_NAME": "STARLINK-35818", "OBJECT_ID": "2025-265AA", "EPOCH": "2025-12-03T06:00:02.999808", "MEAN_MOTION": 15.75043738, "ECCENTRICITY": 0.00017461, "INCLINATION": 42.9997, "RA_OF_ASC_NODE": 110.2354, "ARG_OF_PERICENTER": 250.512, "MEAN_ANOMALY": 196.7325, "EPHEMERIS_TYPE": 0, "CLASSIFICATION_TYPE": "U", "NORAD_CAT_ID": 66540, "ELEMENT_SET_NO": 999, "REV_AT_EPOCH": 347, "BSTAR": 3.4517306e-05, "MEAN_MOTION_DOT": 4.829e-05, "MEAN_MOTION_DDOT": 0}, "tle": {"line1": "1 66540U 25265AA  25337.25003472  .00004829  00000+0  34517-4 0  9990", "line2": "2 66540  42.9997 110.2354 0001746 250.5120 196.7325 15.75043738  3472"}}, "geometry": {"type": "Point", "coordinates": [-14.32757971173106, -38.29100938799905]}}, {"type": "Feature", "properties": {"norad_id": 66541, "name": "STARLINK-35796", "group": "last-30-days", "lat": -38.964048270584556, "lon": -12.03024890808717, "alt_km": 346.41591151296143, "timestamp": "2025-12-03T15:48:01.920011+00:00", "meta": {"OBJECT_NAME": "STARLINK-35796", "OBJECT_ID": "2025-265AB", "EPOCH": "2025-12-03T06:00:02.999808", "MEAN_MOTION": 15.75035788, "ECCENTRICITY": 0.00018042, "INCLINATION": 42.9998, "RA_OF_ASC_NODE": 110.2306, "ARG_OF_PERICENTER": 246.5841, "MEAN_ANOMALY": 202.5738, "EPHEMERIS_TYPE": 0, "CLASSIFICATION_TYPE": "U", "NORAD_CAT_ID": 66541, "ELEMENT_SET_NO": 999, "REV_AT_EPOCH": 347, "BSTAR": 0.00024470635, "MEAN_MOTION_DOT": 0.00037273, "MEAN_MOTION_DDOT": 0}, "tle": {"line1": "1 66541U 25265AB  25337.25003472  .00037273  00000+0  24471-3 0  9997", "line2": "2 66541  42.9998 110.2306 0001804 246.5841 202.5738 15.75035788  3471"}}, "geometry": {"type": "Point", "coordinates": [-12.03024890808717, -38.964048270584556]}}, {"type": "Feature", "properties": {"norad_id": 66542, "name": "STARLINK-35833", "group": "last-30-days", "lat": -39.58564878901944, "lon": -9.710476822470328, "alt_km": 346.52026806553204, "timestamp": "2025-12-03T15:48:01.920022+00:00", "meta": {"OBJECT_NAME": "STARLINK-35833", "OBJECT_ID": "2025-265AC", "EPOCH": "2025-12-03T06:00:02.999808", "MEAN_MOTION": 15.75021525, "ECCENTRICITY": 0.00018067, "INCLINATION": 42.9999, "RA_OF_ASC_NODE": 110.2266, "ARG_OF_PERICENTER": 263.8107, "MEAN_ANOMALY": 187.2747, "EPHEMERIS_TYPE": 0, "CLASSIFICATION_TYPE": "U", "NORAD_CAT_ID": 66542, "ELEMENT_SET_NO": 999, "REV_AT_EPOCH": 347, "BSTAR": 0.00029818106, "MEAN_MOTION_DOT": 0.00045539, "MEAN_MOTION_DDOT": 0}, "tle": {"line1": "1 66542U 25265AC  25337.25003472  .00045539  00000+0  29818-3 0  9992", "line2": "2 66542  42.9999 110.2266 0001806 263.8107 187.2747 15.75021525  3470"}}, "geometry": {"type": "Point", "coordinates": [-9.710476822470328, -39.58564878901944]}}, {"type": "Feature", "properties": {"norad_id": 66543, "name": "STARLINK-35315", "group": "last-30-days", "lat": -40.16250541847675, "lon": -7.342453033994801, "alt_km": 346.8023839403586, "timestamp": "2025-12-03T15:48:01.920031+00:00", "meta": {"OBJECT_NAME": "STARLINK-35315", "OBJECT_ID": "2025-265AD", "EPOCH": "2025-12-03T06:00:02.999808", "MEAN_MOTION": 15.75060877, "ECCENTRICITY": 0.00015304, "INCLINATION": 43.0001, "RA_OF_ASC_NODE": 110.2207, "ARG_OF_PERICENTER": 267.2709, "MEAN_ANOMALY": 185.7199, "EPHEMERIS_TYPE": 0, "CLASSIFICATION_TYPE": "U", "NORAD_CAT_ID": 66543, "ELEMENT_SET_NO": 999, "REV_AT_EPOCH": 336, "BSTAR": -0.00024414186, "MEAN_MOTION_DOT": -0.00037847, "MEAN_MOTION_DDOT": 0}, "tle": {"line1": "1 66543U 25265AD  25337.25003472 -.00037847  00000+0 -24414-3 0  9995", "line2": "2 66543  43.0001 110.2207 0001530 267.2709 185.7199 15.75060877  3367"}}, "geometry": {"type": "Point", "coordinates": [-7.342453033994801, -40.16250541847675]}}, {"type": "Feature", "properties": {"norad_id": 66544, "name": "STARLINK-35728", "group": "last-30-days", "lat": -40.69285041338676, "lon": -4.918281084574735, "alt_km": 346.5725203883967, "timestamp": "2025-12-03T15:48:01.920040+00:00", "meta": {"OBJECT_NAME": "STARLINK-35728", "OBJECT_ID": "2025-265AE", "EPOCH": "2025-12-03T06:00:02.999808", "MEAN_MOTION": 15.75030255, "ECCENTRICITY": 0.00017293, "INCLINATION": 42.9998, "RA_OF_ASC_NODE": 110.2162, "ARG_OF_PERICENTER": 258.5944, "MEAN_ANOMALY": 196.3205, "EPHEMERIS_TYPE": 0, "CLASSIFICATION_TYPE": "U", "NORAD_CAT_ID": 66544, "ELEMENT_SET_NO": 999, "REV_AT_EPOCH": 347, "BSTAR": 0.00023725008, "MEAN_MOTION_DOT": 0.00036108, "MEAN_MOTION_DDOT": 0}, "tle": {"line1": "1 66544U 25265AE  25337.25003472  .00036108  00000+0  23725-3 0  9997", "line2": "2 66544  42.9998 110.2162 0001729 258.5944 196.3205 15.75030255  3470"}}, "geometry": {"type": "Point", "coordinates": [-4.918281084574735, -40.69285041338676]}}, {"type": "Feature", "properties": {"norad_id": 66545, "name": "SHIJIAN-30A", "group": "last-30-days", "lat": 6.830787564645437, "lon": 20.814371681502347, "alt_km": 513.4782772237832, "timestamp": "2025-12-03T15:48:01.920049+00:00", "meta": {"OBJECT_NAME": "SHIJIAN-30A", "OBJECT_ID": "2025-266A", "EPOCH": "2025-12-03T07:50:53.891232", "MEAN_MOTION": 15.1533332, "ECCENTRICITY": 0.00127813, "INCLINATION": 51.7997, "RA_OF_ASC_NODE": 16.9539, "ARG_OF_PERICENTER": 322.9563, "MEAN_ANOMALY": 37.053, "EPHEMERIS_TYPE": 0, "CLASSIFICATION_TYPE": "U", "NORAD_CAT_ID": 66545, "ELEMENT_SET_NO": 999, "REV_AT_EPOCH": 215, "BSTAR": 0.00082114166, "MEAN_MOTION_DOT": 0.00015425, "MEAN_MOTION_DDOT": 0}, "tle": {"line1": "1 66545U 25266A   25337.32701263  .00015425  00000+0  82114-3 0  9996", "line2": "2 66545  51.7997  16.9539 0012781 322.9563  37.0530 15.15333320  2150"}}, "geometry": {"type": "Point", "coordinates": [20.814371681502347, 6.830787564645437]}}, {"type": "Feature", "properties": {"norad_id": 66546, "name": "SHIJIAN-30B", "group": "last-30-days", "lat": 2.627705691540783, "lon": 17.481940596906657, "alt_km": 514.335440544045, "timestamp": "2025-12-03T15:48:01.920058+00:00", "meta": {"OBJECT_NAME": "SHIJIAN-30B", "OBJECT_ID": "2025-266B", "EPOCH": "2025-12-03T07:52:19.741728", "MEAN_MOTION": 15.15394993, "ECCENTRICITY": 0.0010449, "INCLINATION": 51.798, "RA_OF_ASC_NODE": 16.9585, "ARG_OF_PERICENTER": 325.9527, "MEAN_ANOMALY": 34.0778, "EPHEMERIS_TYPE": 0, "CLASSIFICATION_TYPE": "U", "NORAD_CAT_ID": 66546, "ELEMENT_SET_NO": 999, "REV_AT_EPOCH": 215, "BSTAR": 0.00094392173, "MEAN_MOTION_DOT": 0.00017805, "MEAN_MOTION_DDOT": 0}, "tle": {"line1": "1 66546U 25266B   25337.32800627  .00017805  00000+0  94392-3 0  9996", "line2": "2 66546  51.7980  16.9585 0010449 325.9527  34.0778 15.15394993  2150"}}, "geometry": {"type": "Point", "coordinates": [17.481940596906657, 2.627705691540783]}}, {"type": "Feature", "properties": {"norad_id": 66547, "name": "SHIJIAN-30C", "group": "last-30-days", "lat": -0.5847320941085798, "lon": 14.95915301183498, "alt_km": 514.4697510737342, "timestamp": "2025-12-03T15:48:01.920067+00:00", "meta": {"OBJECT_NAME": "SHIJIAN-30C", "OBJECT_ID": "2025-266C", "EPOCH": "2025-12-03T06:18:27.269568", "MEAN_MOTION": 15.15429773, "ECCENTRICITY": 0.00113477, "INCLINATION": 51.7991, "RA_OF_ASC_NODE": 17.273, "ARG_OF_PERICENTER": 317.9117, "MEAN_ANOMALY": 42.0987, "EPHEMERIS_TYPE": 0, "CLASSIFICATION_TYPE": "U", "NORAD_CAT_ID": 66547, "ELEMENT_SET_NO": 999, "REV_AT_EPOCH": 214, "BSTAR": 0.00080704371, "MEAN_MOTION_DOT": 0.00015191, "MEAN_MOTION_DDOT": 0}, "tle": {"line1": "1 66547U 25266C   25337.26281562  .00015191  00000+0  80704-3 0  9999", "line2": "2 66547  51.7991  17.2730 0011347 317.9117  42.0987 15.15429773  2148"}}, "geometry": {"type": "Point", "coordinates": [14.95915301183498, -0.5847320941085798]}}, {"type": "Feature", "properties": {"norad_id": 66548, "name": "CZ-2C R/B", "group": "last-30-days", "lat": 21.403748442809533, "lon": 32.34509494524427, "alt_km": 497.55920048533335, "timestamp": "2025-12-03T15:48:01.920078+00:00", "meta": {"OBJECT_NAME": "CZ-2C R/B", "OBJECT_ID": "2025-266D", "EPOCH": "2025-12-03T07:50:25.266912", "MEAN_MOTION": 15.29849404, "ECCENTRICITY": 0.00847603, "INCLINATION": 52.0553, "RA_OF_ASC_NODE": 16.1159, "ARG_OF_PERICENTER": 141.0444, "MEAN_ANOMALY": 219.669, "EPHEMERIS_TYPE": 0, "CLASSIFICATION_TYPE": "U", "NORAD_CAT_ID": 66548, "ELEMENT_SET_NO": 999, "REV_AT_EPOCH": 217, "BSTAR": 0.00050836487, "MEAN_MOTION_DOT": 0.00016269, "MEAN_MOTION_DDOT": 0}, "tle": {"line1": "1 66548U 25266D   25337.32668133  .00016269  00000+0  50836-3 0  9990", "line2": "2 66548  52.0553  16.1159 0084760 141.0444 219.6690 15.29849404  2176"}}, "geometry": {"type": "Point", "coordinates": [32.34509494524427, 21.403748442809533]}}]}